[{"OBJECT_NAME":"STARLINK-3956","OBJECT_ID":"2022-051AD","EPOCH":"2026-03-09T12:22:59.973888","MEAN_MOTION":15.08833553,"ECCENTRICITY":0.00014173,"INCLINATION":53.2171,"RA_OF_ASC_NODE":119.9012,"ARG_OF_PERICENTER":98.559,"MEAN_ANOMALY":261.5563,"EPHEMERIS_TYPE":0,"CLASSIFICATION_TYPE":"U","NORAD_CAT_ID":52560,"ELEMENT_SET_NO":999,"REV_AT_EPOCH":21155,"BSTAR":-3.2019075e-5,"MEAN_MOTION_DOT":-7.97e-6,"MEAN_MOTION_DDOT":0},{"OBJECT_NAME":"NANOFF B","OBJECT_ID":"2023-185S","EPOCH":"2026-03-09T23:34:31.291104","MEAN_MOTION":15.11549361,"ECCENTRICITY":0.00109129,"INCLINATION":97.5361,"RA_OF_ASC_NODE":137.8575,"ARG_OF_PERICENTER":288.4201,"MEAN_ANOMALY":71.5842,"EPHEMERIS_TYPE":0,"CLASSIFICATION_TYPE":"U","NORAD_CAT_ID":58755,"ELEMENT_SET_NO":999,"REV_AT_EPOCH":11888,"BSTAR":0.00028764283,"MEAN_MOTION_DOT":4.819e-5,"MEAN_MOTION_DDOT":0}]
